STARLINK-36586          
1 67548U 26014S   26037.16668981  .00142852  00000+0  73691-3 0  9996
2 67548  97.2837 280.5061 0001424  97.7558  85.6116 15.80740400  3629
STARLINK-36564          
1 67549U 26014T   26037.16668981  .00212417  00000+0  10884-2 0  9996
2 67549  97.2830 280.5092 0001516 107.9920  82.1335 15.80705388  3560
STARLINK-36563          
1 67550U 26014U   26037.16668981  .00210932  00000+0  10807-2 0  9993
2 67550  97.2759 280.5096 0001227 101.2044  95.6612 15.80710989  3626
STARLINK-36566          
1 67551U 26014V   26037.16668981  .00214505  00000+0  11002-2 0  9992
2 67551  97.2818 280.5121 0001647  66.1723 136.8975 15.80678513  3627
STARLINK-36567          
1 67552U 26014W   26037.16668981 -.01915947  00000+0 -12967-1 0  9994
2 67552  97.2749 280.5137 0001829 107.8227  98.3000 15.78101958  3624
STARLINK-36569          
1 67553U 26014X   26037.16668981  .00217648  00000+0  11158-2 0  9997
2 67553  97.2747 280.5178 0001326 100.7687 116.8472 15.80680166  3627
STARLINK-36395          
1 67554U 26014Y   26037.16668981 -.01923344  00000+0 -12846-1 0  9992
2 67554  97.2745 280.5269 0002028 101.9533 135.3911 15.78405097  3629
STARLINK-36559          
1 67555U 26014Z   26037.16668981 -.01920519  00000+0 -12968-1 0  9999
2 67555  97.2748 280.5232 0001923  96.1352 133.8466 15.78160607  3623
MR-1                    
1 67556U 26015A   26037.12707431  .00000080  00000+0  10217-3 0  9997
2 67556  88.9984 281.8699 0005080  95.1736 264.9996 13.52686120  1992
MR-2                    
1 67557U 26015B   26037.12734017  .00000033  00000+0  31363-4 0  9992
2 67557  88.9983 281.8701 0005154  94.1850 265.9891 13.52660805  1991
ELECTRON R/B            
1 67558U 26015C   26037.09099867  .01639682 -75601-6  14005-2 0  9994
2 67558  89.0001 281.4678 0524055 216.7138 139.7128 15.11304700  2191
ELECTRON KICK STAGE R/B 
1 67559U 26015D   26037.08909107  .00074007  40667-6  12573-2 0  9995
2 67559  89.0511 281.6325 0532960 284.3232  69.9394 14.67107648  2156
