CCSDS_OMM_VERS = 2.0
CREATION_DATE  = 
ORIGINATOR     = 

OBJECT_NAME    = STARLINK-36586
OBJECT_ID      = 2026-014S
CENTER_NAME    = EARTH
REF_FRAME      = TEME
TIME_SYSTEM    = UTC
MEAN_ELEMENT_THEORY = SGP/SGP4

EPOCH          = 2026-02-06T04:00:01.999584
MEAN_MOTION    = 15.80740400
ECCENTRICITY   = .0001424
INCLINATION    = 97.2837
RA_OF_ASC_NODE = 280.5061
ARG_OF_PERICENTER = 97.7558
MEAN_ANOMALY   = 85.6116

EPHEMERIS_TYPE = 0
CLASSIFICATION_TYPE = U
NORAD_CAT_ID   = 67548
ELEMENT_SET_NO = 999
REV_AT_EPOCH   = 362
BSTAR          = .73691E-3
MEAN_MOTION_DOT = .142852E-2
MEAN_MOTION_DDOT = 0

CCSDS_OMM_VERS = 2.0
CREATION_DATE  = 
ORIGINATOR     = 

OBJECT_NAME    = STARLINK-36564
OBJECT_ID      = 2026-014T
CENTER_NAME    = EARTH
REF_FRAME      = TEME
TIME_SYSTEM    = UTC
MEAN_ELEMENT_THEORY = SGP/SGP4

EPOCH          = 2026-02-06T04:00:01.999584
MEAN_MOTION    = 15.80705388
ECCENTRICITY   = .0001516
INCLINATION    = 97.2830
RA_OF_ASC_NODE = 280.5092
ARG_OF_PERICENTER = 107.9920
MEAN_ANOMALY   = 82.1335

EPHEMERIS_TYPE = 0
CLASSIFICATION_TYPE = U
NORAD_CAT_ID   = 67549
ELEMENT_SET_NO = 999
REV_AT_EPOCH   = 356
BSTAR          = .10884E-2
MEAN_MOTION_DOT = .212417E-2
MEAN_MOTION_DDOT = 0

CCSDS_OMM_VERS = 2.0
CREATION_DATE  = 
ORIGINATOR     = 

OBJECT_NAME    = STARLINK-36563
OBJECT_ID      = 2026-014U
CENTER_NAME    = EARTH
REF_FRAME      = TEME
TIME_SYSTEM    = UTC
MEAN_ELEMENT_THEORY = SGP/SGP4

EPOCH          = 2026-02-06T04:00:01.999584
MEAN_MOTION    = 15.80710989
ECCENTRICITY   = .0001227
INCLINATION    = 97.2759
RA_OF_ASC_NODE = 280.5096
ARG_OF_PERICENTER = 101.2044
MEAN_ANOMALY   = 95.6612

EPHEMERIS_TYPE = 0
CLASSIFICATION_TYPE = U
NORAD_CAT_ID   = 67550
ELEMENT_SET_NO = 999
REV_AT_EPOCH   = 362
BSTAR          = .10807E-2
MEAN_MOTION_DOT = .210932E-2
MEAN_MOTION_DDOT = 0

CCSDS_OMM_VERS = 2.0
CREATION_DATE  = 
ORIGINATOR     = 

OBJECT_NAME    = STARLINK-36566
OBJECT_ID      = 2026-014V
CENTER_NAME    = EARTH
REF_FRAME      = TEME
TIME_SYSTEM    = UTC
MEAN_ELEMENT_THEORY = SGP/SGP4

EPOCH          = 2026-02-06T04:00:01.999584
MEAN_MOTION    = 15.80678513
ECCENTRICITY   = .0001647
INCLINATION    = 97.2818
RA_OF_ASC_NODE = 280.5121
ARG_OF_PERICENTER = 66.1723
MEAN_ANOMALY   = 136.8975

EPHEMERIS_TYPE = 0
CLASSIFICATION_TYPE = U
NORAD_CAT_ID   = 67551
ELEMENT_SET_NO = 999
REV_AT_EPOCH   = 362
BSTAR          = .11002E-2
MEAN_MOTION_DOT = .214505E-2
MEAN_MOTION_DDOT = 0

CCSDS_OMM_VERS = 2.0
CREATION_DATE  = 
ORIGINATOR     = 

OBJECT_NAME    = STARLINK-36567
OBJECT_ID      = 2026-014W
CENTER_NAME    = EARTH
REF_FRAME      = TEME
TIME_SYSTEM    = UTC
MEAN_ELEMENT_THEORY = SGP/SGP4

EPOCH          = 2026-02-06T04:00:01.999584
MEAN_MOTION    = 15.78101958
ECCENTRICITY   = .0001829
INCLINATION    = 97.2749
RA_OF_ASC_NODE = 280.5137
ARG_OF_PERICENTER = 107.8227
MEAN_ANOMALY   = 98.3000

EPHEMERIS_TYPE = 0
CLASSIFICATION_TYPE = U
NORAD_CAT_ID   = 67552
ELEMENT_SET_NO = 999
REV_AT_EPOCH   = 362
BSTAR          = -.12967E-1
MEAN_MOTION_DOT = -.1915947E-1
MEAN_MOTION_DDOT = 0

CCSDS_OMM_VERS = 2.0
CREATION_DATE  = 
ORIGINATOR     = 

OBJECT_NAME    = STARLINK-36569
OBJECT_ID      = 2026-014X
CENTER_NAME    = EARTH
REF_FRAME      = TEME
TIME_SYSTEM    = UTC
MEAN_ELEMENT_THEORY = SGP/SGP4

EPOCH          = 2026-02-06T04:00:01.999584
MEAN_MOTION    = 15.80680166
ECCENTRICITY   = .0001326
INCLINATION    = 97.2747
RA_OF_ASC_NODE = 280.5178
ARG_OF_PERICENTER = 100.7687
MEAN_ANOMALY   = 116.8472

EPHEMERIS_TYPE = 0
CLASSIFICATION_TYPE = U
NORAD_CAT_ID   = 67553
ELEMENT_SET_NO = 999
REV_AT_EPOCH   = 362
BSTAR          = .11158E-2
MEAN_MOTION_DOT = .217648E-2
MEAN_MOTION_DDOT = 0

CCSDS_OMM_VERS = 2.0
CREATION_DATE  = 
ORIGINATOR     = 

OBJECT_NAME    = STARLINK-36395
OBJECT_ID      = 2026-014Y
CENTER_NAME    = EARTH
REF_FRAME      = TEME
TIME_SYSTEM    = UTC
MEAN_ELEMENT_THEORY = SGP/SGP4

EPOCH          = 2026-02-06T04:00:01.999584
MEAN_MOTION    = 15.78405097
ECCENTRICITY   = .0002028
INCLINATION    = 97.2745
RA_OF_ASC_NODE = 280.5269
ARG_OF_PERICENTER = 101.9533
MEAN_ANOMALY   = 135.3911

EPHEMERIS_TYPE = 0
CLASSIFICATION_TYPE = U
NORAD_CAT_ID   = 67554
ELEMENT_SET_NO = 999
REV_AT_EPOCH   = 362
BSTAR          = -.12846E-1
MEAN_MOTION_DOT = -.1923344E-1
MEAN_MOTION_DDOT = 0

CCSDS_OMM_VERS = 2.0
CREATION_DATE  = 
ORIGINATOR     = 

OBJECT_NAME    = STARLINK-36559
OBJECT_ID      = 2026-014Z
CENTER_NAME    = EARTH
REF_FRAME      = TEME
TIME_SYSTEM    = UTC
MEAN_ELEMENT_THEORY = SGP/SGP4

EPOCH          = 2026-02-06T04:00:01.999584
MEAN_MOTION    = 15.78160607
ECCENTRICITY   = .0001923
INCLINATION    = 97.2748
RA_OF_ASC_NODE = 280.5232
ARG_OF_PERICENTER = 96.1352
MEAN_ANOMALY   = 133.8466

EPHEMERIS_TYPE = 0
CLASSIFICATION_TYPE = U
NORAD_CAT_ID   = 67555
ELEMENT_SET_NO = 999
REV_AT_EPOCH   = 362
BSTAR          = -.12968E-1
MEAN_MOTION_DOT = -.1920519E-1
MEAN_MOTION_DDOT = 0

CCSDS_OMM_VERS = 2.0
CREATION_DATE  = 
ORIGINATOR     = 

OBJECT_NAME    = MR-1
OBJECT_ID      = 2026-015A
CENTER_NAME    = EARTH
REF_FRAME      = TEME
TIME_SYSTEM    = UTC
MEAN_ELEMENT_THEORY = SGP/SGP4

EPOCH          = 2026-02-06T03:02:59.220384
MEAN_MOTION    = 13.52686120
ECCENTRICITY   = .000508
INCLINATION    = 88.9984
RA_OF_ASC_NODE = 281.8699
ARG_OF_PERICENTER = 95.1736
MEAN_ANOMALY   = 264.9996

EPHEMERIS_TYPE = 0
CLASSIFICATION_TYPE = U
NORAD_CAT_ID   = 67556
ELEMENT_SET_NO = 999
REV_AT_EPOCH   = 199
BSTAR          = .10217E-3
MEAN_MOTION_DOT = .8E-6
MEAN_MOTION_DDOT = 0

CCSDS_OMM_VERS = 2.0
CREATION_DATE  = 
ORIGINATOR     = 

OBJECT_NAME    = MR-2
OBJECT_ID      = 2026-015B
CENTER_NAME    = EARTH
REF_FRAME      = TEME
TIME_SYSTEM    = UTC
MEAN_ELEMENT_THEORY = SGP/SGP4

EPOCH          = 2026-02-06T03:03:22.190688
MEAN_MOTION    = 13.52660805
ECCENTRICITY   = .0005154
INCLINATION    = 88.9983
RA_OF_ASC_NODE = 281.8701
ARG_OF_PERICENTER = 94.1850
MEAN_ANOMALY   = 265.9891

EPHEMERIS_TYPE = 0
CLASSIFICATION_TYPE = U
NORAD_CAT_ID   = 67557
ELEMENT_SET_NO = 999
REV_AT_EPOCH   = 199
BSTAR          = .31363E-4
MEAN_MOTION_DOT = .33E-6
MEAN_MOTION_DDOT = 0

CCSDS_OMM_VERS = 2.0
CREATION_DATE  = 
ORIGINATOR     = 

OBJECT_NAME    = ELECTRON R/B
OBJECT_ID      = 2026-015C
CENTER_NAME    = EARTH
REF_FRAME      = TEME
TIME_SYSTEM    = UTC
MEAN_ELEMENT_THEORY = SGP/SGP4

EPOCH          = 2026-02-06T02:11:02.285088
MEAN_MOTION    = 15.11304700
ECCENTRICITY   = .0524055
INCLINATION    = 89.0001
RA_OF_ASC_NODE = 281.4678
ARG_OF_PERICENTER = 216.7138
MEAN_ANOMALY   = 139.7128

EPHEMERIS_TYPE = 0
CLASSIFICATION_TYPE = U
NORAD_CAT_ID   = 67558
ELEMENT_SET_NO = 999
REV_AT_EPOCH   = 219
BSTAR          = .14005E-2
MEAN_MOTION_DOT = .1639682E-1
MEAN_MOTION_DDOT = -.75601E-6

CCSDS_OMM_VERS = 2.0
CREATION_DATE  = 
ORIGINATOR     = 

OBJECT_NAME    = ELECTRON KICK STAGE R/B
OBJECT_ID      = 2026-015D
CENTER_NAME    = EARTH
REF_FRAME      = TEME
TIME_SYSTEM    = UTC
MEAN_ELEMENT_THEORY = SGP/SGP4

EPOCH          = 2026-02-06T02:08:17.468448
MEAN_MOTION    = 14.67107648
ECCENTRICITY   = .053296
INCLINATION    = 89.0511
RA_OF_ASC_NODE = 281.6325
ARG_OF_PERICENTER = 284.3232
MEAN_ANOMALY   = 69.9394

EPHEMERIS_TYPE = 0
CLASSIFICATION_TYPE = U
NORAD_CAT_ID   = 67559
ELEMENT_SET_NO = 999
REV_AT_EPOCH   = 215
BSTAR          = .12573E-2
MEAN_MOTION_DOT = .74007E-3
MEAN_MOTION_DDOT = .40667E-6

